{"type": "FeatureCollection", "features": [ {"type": "Feature", "properties": {"norad_id": 67071, "name": "KZ-11 R/B", "group": "last-30-days", "lat": 34.70447496893682, "lon": 100.76849830148893, "alt_km": 187.58588230593978, "timestamp": "2025-12-22T09:53:36.147653+00:00", "meta": {"OBJECT_NAME": "KZ-11 R/B", "OBJECT_ID": "2025-296C", "EPOCH": "2025-12-22T01:51:00.637344", "MEAN_MOTION": 15.32362406, "ECCENTRICITY": 0.0494611, "INCLINATION": 41.3134, "RA_OF_ASC_NODE": 50.7002, "ARG_OF_PERICENTER": 18.7713, "MEAN_ANOMALY": 343.0666, "EPHEMERIS_TYPE": 0, "CLASSIFICATION_TYPE": "U", "NORAD_CAT_ID": 67071, "ELEMENT_SET_NO": 999, "REV_AT_EPOCH": 134, "BSTAR": 0.00052429, "MEAN_MOTION_DOT": 0.08373198, "MEAN_MOTION_DDOT": 7.0501e-06}, "tle": {"line1": "1 67071U 25296C   25356.07709071  .08373198  70501-5  52429-3 0  9999", "line2": "2 67071  41.3134  50.7002 0494611  18.7713 343.0666 15.32362406  1343"}}, "geometry": {"type": "Point", "coordinates": [100.76849830148893, 34.70447496893682]}}, {"type": "Feature", "properties": {"norad_id": 67072, "name": "ELECTRON R/B", "group": "last-30-days", "lat": -81.59309916274647, "lon": -152.852597471024, "alt_km": 237.05309496839345, "timestamp": "2025-12-22T09:53:36.147663+00:00", "meta": {"OBJECT_NAME": "ELECTRON R/B", "OBJECT_ID": "2025-297A", "EPOCH": "2025-12-22T01:17:14.515008", "MEAN_MOTION": 16.05400874, "ECCENTRICITY": 0.0141819, "INCLINATION": 97.46, "RA_OF_ASC_NODE": 144.2862, "ARG_OF_PERICENTER": 199.0675, "MEAN_ANOMALY": 160.5267, "EPHEMERIS_TYPE": 0, "CLASSIFICATION_TYPE": "U", "NORAD_CAT_ID": 67072, "ELEMENT_SET_NO": 999, "REV_AT_EPOCH": 126, "BSTAR": 0.001378, "MEAN_MOTION_DOT": 0.03950191, "MEAN_MOTION_DDOT": 2.1701e-06}, "tle": {"line1": "1 67072U 25297A   25356.05364022  .03950191  21701-5  13780-2 0  9995", "line2": "2 67072  97.4600 144.2862 0141819 199.0675 160.5267 16.05400874  1269"}}, "geometry": {"type": "Point", "coordinates": [-152.852597471024, -81.59309916274647]}}, {"type": "Feature", "properties": {"norad_id": 67073, "name": "RAISE-4", "group": "last-30-days", "lat": 70.20278313301193, "lon": -14.875203197040221, "alt_km": 545.8729548182282, "timestamp": "2025-12-22T09:53:36.147673+00:00", "meta": {"OBJECT_NAME": "RAISE-4", "OBJECT_ID": "2025-297B", "EPOCH": "2025-12-21T09:30:47.940480", "MEAN_MOTION": 15.07192134, "ECCENTRICITY": 0.00114098, "INCLINATION": 97.4855, "RA_OF_ASC_NODE": 142.7124, "ARG_OF_PERICENTER": 288.7486, "MEAN_ANOMALY": 71.2503, "EPHEMERIS_TYPE": 0, "CLASSIFICATION_TYPE": "U", "NORAD_CAT_ID": 67073, "ELEMENT_SET_NO": 999, "REV_AT_EPOCH": 109, "BSTAR": 0.00021859428, "MEAN_MOTION_DOT": 3.233e-05, "MEAN_MOTION_DDOT": 0}, "tle": {"line1": "1 67073U 25297B   25355.39638820  .00003233  00000+0  21859-3 0  9995", "line2": "2 67073  97.4855 142.7124 0011409 288.7486  71.2503 15.07192134  1093"}}, "geometry": {"type": "Point", "coordinates": [-14.875203197040221, 70.20278313301193]}}, {"type": "Feature", "properties": {"norad_id": 67074, "name": "ELECTRON KICK STAGE R/B", "group": "last-30-days", "lat": 75.7658185454469, "lon": -4.46656562760753, "alt_km": 474.74092482528795, "timestamp": "2025-12-22T09:53:36.147683+00:00", "meta": {"OBJECT_NAME": "ELECTRON KICK STAGE R/B", "OBJECT_ID": "2025-297C", "EPOCH": "2025-12-21T16:28:51.216096", "MEAN_MOTION": 15.57384666, "ECCENTRICITY": 0.0197675, "INCLINATION": 97.4819, "RA_OF_ASC_NODE": 143.567, "ARG_OF_PERICENTER": 237.0162, "MEAN_ANOMALY": 121.1958, "EPHEMERIS_TYPE": 0, "CLASSIFICATION_TYPE": "U", "NORAD_CAT_ID": 67074, "ELEMENT_SET_NO": 999, "REV_AT_EPOCH": 117, "BSTAR": 0.0016286, "MEAN_MOTION_DOT": 0.00303953, "MEAN_MOTION_DDOT": 2.6563e-05}, "tle": {"line1": "1 67074U 25297C   25355.68670389  .00303953  26563-4  16286-2 0  9990", "line2": "2 67074  97.4819 143.5670 0197675 237.0162 121.1958 15.57384666  1173"}}, "geometry": {"type": "Point", "coordinates": [-4.46656562760753, 75.7658185454469]}}, {"type": "Feature", "properties": {"norad_id": 67075, "name": "STARLINK-36230", "group": "last-30-days", "lat": -55.25158804426164, "lon": -169.0996320105212, "alt_km": 310.0449125037003, "timestamp": "2025-12-22T09:53:36.147695+00:00", "meta": {"OBJECT_NAME": "STARLINK-36230", "OBJECT_ID": "2025-298A", "EPOCH": "2025-12-22T04:00:01.998720", "MEAN_MOTION": 15.88555733, "ECCENTRICITY": 0.0004464, "INCLINATION": 69.9976, "RA_OF_ASC_NODE": 223.2879, "ARG_OF_PERICENTER": 269.9352, "MEAN_ANOMALY": 65.3698, "EPHEMERIS_TYPE": 0, "CLASSIFICATION_TYPE": "U", "NORAD_CAT_ID": 67075, "ELEMENT_SET_NO": 999, "REV_AT_EPOCH": 249, "BSTAR": 0.0003433, "MEAN_MOTION_DOT": 0.00096715, "MEAN_MOTION_DDOT": 0}, "tle": {"line1": "1 67075U 25298A   25356.16668980  .00096715  00000+0  34330-3 0  9999", "line2": "2 67075  69.9976 223.2879 0004464 269.9352  65.3698 15.88555733  2492"}}, "geometry": {"type": "Point", "coordinates": [-169.0996320105212, -55.25158804426164]}}, {"type": "Feature", "properties": {"norad_id": 67076, "name": "STARLINK-36240", "group": "last-30-days", "lat": -53.79433162355434, "lon": -167.26755888724986, "alt_km": 310.0256198366669, "timestamp": "2025-12-22T09:53:36.147705+00:00", "meta": {"OBJECT_NAME": "STARLINK-36240", "OBJECT_ID": "2025-298B", "EPOCH": "2025-12-22T04:00:01.998720", "MEAN_MOTION": 15.88604298, "ECCENTRICITY": 0.000451, "INCLINATION": 69.9975, "RA_OF_ASC_NODE": 223.2854, "ARG_OF_PERICENTER": 265.5274, "MEAN_ANOMALY": 71.5377, "EPHEMERIS_TYPE": 0, "CLASSIFICATION_TYPE": "U", "NORAD_CAT_ID": 67076, "ELEMENT_SET_NO": 999, "REV_AT_EPOCH": 249, "BSTAR": 0.00034558, "MEAN_MOTION_DOT": 0.00097605, "MEAN_MOTION_DDOT": 0}, "tle": {"line1": "1 67076U 25298B   25356.16668980  .00097605  00000+0  34558-3 0  9991", "line2": "2 67076  69.9975 223.2854 0004510 265.5274  71.5377 15.88604298  2496"}}, "geometry": {"type": "Point", "coordinates": [-167.26755888724986, -53.79433162355434]}}, {"type": "Feature", "properties": {"norad_id": 67077, "name": "STARLINK-36243", "group": "last-30-days", "lat": -51.698442049657665, "lon": -164.89388445668274, "alt_km": 308.29511843970977, "timestamp": "2025-12-22T09:53:36.147715+00:00", "meta": {"OBJECT_NAME": "STARLINK-36243", "OBJECT_ID": "2025-298C", "EPOCH": "2025-12-22T04:00:01.998720", "MEAN_MOTION": 15.88939796, "ECCENTRICITY": 0.000449, "INCLINATION": 69.9974, "RA_OF_ASC_NODE": 223.2835, "ARG_OF_PERICENTER": 273.0079, "MEAN_ANOMALY": 66.2196, "EPHEMERIS_TYPE": 0, "CLASSIFICATION_TYPE": "U", "NORAD_CAT_ID": 67077, "ELEMENT_SET_NO": 999, "REV_AT_EPOCH": 249, "BSTAR": 0.0018082, "MEAN_MOTION_DOT": 0.00547253, "MEAN_MOTION_DDOT": 0}, "tle": {"line1": "1 67077U 25298C   25356.16668980  .00547253  00000+0  18082-2 0  9994", "line2": "2 67077  69.9974 223.2835 0004490 273.0079  66.2196 15.88939796  2493"}}, "geometry": {"type": "Point", "coordinates": [-164.89388445668274, -51.698442049657665]}}, {"type": "Feature", "properties": {"norad_id": 67078, "name": "STARLINK-36236", "group": "last-30-days", "lat": -50.62390696023707, "lon": -163.77967661080737, "alt_km": 309.6140726452486, "timestamp": "2025-12-22T09:53:36.147725+00:00", "meta": {"OBJECT_NAME": "STARLINK-36236", "OBJECT_ID": "2025-298D", "EPOCH": "2025-12-22T04:00:01.998720", "MEAN_MOTION": 15.88705846, "ECCENTRICITY": 0.0004622, "INCLINATION": 69.9974, "RA_OF_ASC_NODE": 223.281, "ARG_OF_PERICENTER": 269.0288, "MEAN_ANOMALY": 71.7769, "EPHEMERIS_TYPE": 0, "CLASSIFICATION_TYPE": "U", "NORAD_CAT_ID": 67078, "ELEMENT_SET_NO": 999, "REV_AT_EPOCH": 249, "BSTAR": 0.0003421, "MEAN_MOTION_DOT": 0.00097108, "MEAN_MOTION_DDOT": 0}, "tle": {"line1": "1 67078U 25298D   25356.16668980  .00097108  00000+0  34210-3 0  9996", "line2": "2 67078  69.9974 223.2810 0004622 269.0288  71.7769 15.88705846  2495"}}, "geometry": {"type": "Point", "coordinates": [-163.77967661080737, -50.62390696023707]}}, {"type": "Feature", "properties": {"norad_id": 67079, "name": "STARLINK-36159", "group": "last-30-days", "lat": -48.76248275102675, "lon": -161.98617017741083, "alt_km": 309.5227195877178, "timestamp": "2025-12-22T09:53:36.147735+00:00", "meta": {"OBJECT_NAME": "STARLINK-36159", "OBJECT_ID": "2025-298E", "EPOCH": "2025-12-22T04:00:01.998720", "MEAN_MOTION": 15.88770964, "ECCENTRICITY": 0.0004545, "INCLINATION": 69.9976, "RA_OF_ASC_NODE": 223.2787, "ARG_OF_PERICENTER": 268.8142, "MEAN_ANOMALY": 74.1343, "EPHEMERIS_TYPE": 0, "CLASSIFICATION_TYPE": "U", "NORAD_CAT_ID": 67079, "ELEMENT_SET_NO": 999, "REV_AT_EPOCH": 249, "BSTAR": 0.00028256, "MEAN_MOTION_DOT": 0.00080265, "MEAN_MOTION_DDOT": 0}, "tle": {"line1": "1 67079U 25298E   25356.16668980  .00080265  00000+0  28256-3 0  9996", "line2": "2 67079  69.9976 223.2787 0004545 268.8142  74.1343 15.88770964  2499"}}, "geometry": {"type": "Point", "coordinates": [-161.98617017741083, -48.76248275102675]}}, {"type": "Feature", "properties": {"norad_id": 67080, "name": "STARLINK-36158", "group": "last-30-days", "lat": -46.91197940118523, "lon": -160.35323060525897, "alt_km": 309.6468044344392, "timestamp": "2025-12-22T09:53:36.147744+00:00", "meta": {"OBJECT_NAME": "STARLINK-36158", "OBJECT_ID": "2025-298F", "EPOCH": "2025-12-22T04:00:01.998720", "MEAN_MOTION": 15.88930813, "ECCENTRICITY": 0.0004083, "INCLINATION": 69.9975, "RA_OF_ASC_NODE": 223.2767, "ARG_OF_PERICENTER": 273.4264, "MEAN_ANOMALY": 71.6098, "EPHEMERIS_TYPE": 0, "CLASSIFICATION_TYPE": "U", "NORAD_CAT_ID": 67080, "ELEMENT_SET_NO": 999, "REV_AT_EPOCH": 243, "BSTAR": -0.00083382, "MEAN_MOTION_DOT": -0.00231815, "MEAN_MOTION_DDOT": 0}, "tle": {"line1": "1 67080U 25298F   25356.16668980 -.00231815  00000+0 -83382-3 0  9990", "line2": "2 67080  69.9975 223.2767 0004083 273.4264  71.6098 15.88930813  2436"}}, "geometry": {"type": "Point", "coordinates": [-160.35323060525897, -46.91197940118523]}}]}